{"type":"FeatureCollection", "features": [
{"type":"Feature","geometry":{"type":"MultiPolygon","coordinates":[[[[-57.609,-30.188],[-55.725,-28.204],[-54.829,-27.551],[-53.838,-27.121],[-53.671,-26.225],[-53.891,-25.669],[-54.616,-25.576],[-54.825,-26.652],[-55.715,-27.415],[-56.437,-27.554],[-58.642,-27.196],[-57.587,-25.405],[-57.822,-25.136],[-59.892,-24.094],[-60.84,-23.858],[-61.928,-23.059],[-62.651,-22.234],[-62.843,-21.997],[-63.976,-22.073],[-64.325,-22.828],[-64.606,-22.229],[-65.771,-22.1],[-66.22,-21.803],[-67.195,-22.822],[-67.009,-23.001],[-67.356,-24.034],[-68.25,-24.392],[-68.562,-24.838],[-68.346,-27.028],[-68.846,-27.154],[-69.657,-28.414],[-70.027,-29.324],[-69.956,-30.358],[-70.585,-31.569],[-69.82,-33.284],[-69.852,-34.224],[-70.47,-35.326],[-70.405,-36.062],[-71.056,-36.524],[-71.168,-37.762],[-70.952,-38.738],[-71.426,-38.986],[-71.932,-40.692],[-71.761,-42.101],[-72.146,-42.99],[-71.781,-43.167],[-71.957,-44.792],[-71.354,-45.23],[-71.746,-45.579],[-71.695,-46.578],[-72.518,-47.876],[-72.355,-48.366],[-73.135,-49.301],[-73.501,-50.125],[-73.153,-50.738],[-72.34,-50.682],[-72.408,-51.541],[-71.919,-51.99],[-69.96,-52.008],[-68.443,-52.357],[-69.201,-50.994],[-68.939,-50.382],[-67.783,-49.859],[-67.685,-49.247],[-67.033,-48.628],[-65.81,-47.941],[-65.999,-47.094],[-66.777,-47.006],[-67.563,-46.345],[-66.941,-45.257],[-65.639,-45.008],[-65.284,-43.63],[-64.319,-42.969],[-64.65,-42.531],[-63.692,-42.805],[-65.059,-41.97],[-65.133,-40.881],[-63.773,-41.15],[-62.395,-40.891],[-62.054,-39.374],[-62.374,-38.853],[-61.603,-38.999],[-59.828,-38.838],[-58.179,-38.436],[-57.547,-38.086],[-56.672,-36.851],[-57.265,-36.144],[-57.304,-35.188],[-58.283,-34.683],[-58.547,-33.663],[-58.201,-32.472],[-58.189,-31.924],[-57.609,-30.188]]],[[[-68.653,-54.854],[-66.511,-55.032],[-65.179,-54.678],[-66.236,-54.533],[-68.489,-53.261],[-68.63,-52.653],[-68.653,-54.854]]]]},"properties":{"featurecla":"Admin-0 country","scalerank":1,"LABELRANK":2,"SOVEREIGNT":"Argentina","SOV_A3":"ARG","ADM0_DIF":0,"LEVEL":2,"TYPE":"Sovereign country","TLC":"1","ADMIN":"Argentina","ADM0_A3":"ARG","GEOU_DIF":0,"GEOUNIT":"Argentina","GU_A3":"ARG","SU_DIF":0,"SUBUNIT":"Argentina","SU_A3":"ARG","BRK_DIFF":0,"NAME":"Argentina","NAME_LONG":"Argentina","BRK_A3":"ARG","BRK_NAME":"Argentina","BRK_GROUP":"","ABBREV":"Arg.","POSTAL":"AR","FORMAL_EN":"Argentine Republic","FORMAL_FR":"","NAME_CIAWF":"Argentina","NOTE_ADM0":"","NOTE_BRK":"","NAME_SORT":"Argentina","NAME_ALT":"","MAPCOLOR7":3,"MAPCOLOR8":1,"MAPCOLOR9":3,"MAPCOLOR13":13,"POP_EST":44938712,"POP_RANK":15,"POP_YEAR":2019,"GDP_MD":445445,"GDP_YEAR":2019,"ECONOMY":"5. Emerging region: G20","INCOME_GRP":"3. Upper middle income","FIPS_10":"AR","ISO_A2":"AR","ISO_A2_EH":"AR","ISO_A3":"ARG","ISO_A3_EH":"ARG","ISO_N3":"032","ISO_N3_EH":"032","UN_A3":"032","WB_A2":"AR","WB_A3":"ARG","WOE_ID":23424747,"WOE_ID_EH":23424747,"WOE_NOTE":"Exact WOE match as country","ADM0_ISO":"ARG","ADM0_DIFF":"","ADM0_TLC":"ARG","ADM0_A3_US":"ARG","ADM0_A3_FR":"ARG","ADM0_A3_RU":"ARG","ADM0_A3_ES":"ARG","ADM0_A3_CN":"ARG","ADM0_A3_TW":"ARG","ADM0_A3_IN":"ARG","ADM0_A3_NP":"ARG","ADM0_A3_PK":"ARG","ADM0_A3_DE":"ARG","ADM0_A3_GB":"ARG","ADM0_A3_BR":"ARG","ADM0_A3_IL":"ARG","ADM0_A3_PS":"ARG","ADM0_A3_SA":"ARG","ADM0_A3_EG":"ARG","ADM0_A3_MA":"ARG","ADM0_A3_PT":"ARG","ADM0_A3_AR":"ARG","ADM0_A3_JP":"ARG","ADM0_A3_KO":"ARG","ADM0_A3_VN":"ARG","ADM0_A3_TR":"ARG","ADM0_A3_ID":"ARG","ADM0_A3_PL":"ARG","ADM0_A3_GR":"ARG","ADM0_A3_IT":"ARG","ADM0_A3_NL":"ARG","ADM0_A3_SE":"ARG","ADM0_A3_BD":"ARG","ADM0_A3_UA":"ARG","ADM0_A3_UN":-99,"ADM0_A3_WB":-99,"CONTINENT":"South America","REGION_UN":"Americas","SUBREGION":"South America","REGION_WB":"Latin America & Caribbean","NAME_LEN":9,"LONG_LEN":9,"ABBREV_LEN":4,"TINY":-99,"HOMEPART":1,"MIN_ZOOM":0,"MIN_LABEL":2,"MAX_LABEL":7,"LABEL_X":-64.173331,"LABEL_Y":-33.501159,"NE_ID":1159320331,"WIKIDATAID":"Q414","NAME_AR":"الأرجنتين","NAME_BN":"আর্জেন্টিনা","NAME_DE":"Argentinien","NAME_EN":"Argentina","NAME_ES":"Argentina","NAME_FA":"آرژانتین","NAME_FR":"Argentine","NAME_EL":"Αργεντινή","NAME_HE":"ארגנטינה","NAME_HI":"अर्जेण्टीना","NAME_HU":"Argentína","NAME_ID":"Argentina","NAME_IT":"Argentina","NAME_JA":"アルゼンチン","NAME_KO":"아르헨티나","NAME_NL":"Argentinië","NAME_PL":"Argentyna","NAME_PT":"Argentina","NAME_RU":"Аргентина","NAME_SV":"Argentina","NAME_TR":"Arjantin","NAME_UK":"Аргентина","NAME_UR":"ارجنٹائن","NAME_VI":"Argentina","NAME_ZH":"阿根廷","NAME_ZHT":"阿根廷","FCLASS_ISO":"Admin-0 country","TLC_DIFF":"","FCLASS_TLC":"Admin-0 country","FCLASS_US":"","FCLASS_FR":"","FCLASS_RU":"","FCLASS_ES":"","FCLASS_CN":"","FCLASS_TW":"","FCLASS_IN":"","FCLASS_NP":"","FCLASS_PK":"","FCLASS_DE":"","FCLASS_GB":"","FCLASS_BR":"","FCLASS_IL":"","FCLASS_PS":"","FCLASS_SA":"","FCLASS_EG":"","FCLASS_MA":"","FCLASS_PT":"","FCLASS_AR":"","FCLASS_JP":"","FCLASS_KO":"","FCLASS_VN":"","FCLASS_TR":"","FCLASS_ID":"","FCLASS_PL":"","FCLASS_GR":"","FCLASS_IT":"","FCLASS_NL":"","FCLASS_SE":"","FCLASS_BD":"","FCLASS_UA":""}}
]}